#aV2013  9 18  0  0  0.00000000     288 DD+AD WGS84 FIT  NGA
## 1758 259200.00000000   300.00000000 56553 0.0000000000000
+   31     1  2  3  4  5  6  7  8  9 10 11 12 13 14 15 16 17
+         18 19 20 21 22 23 24 25 26 27 28 29 31 32  0  0  0
+          0  0  0  0  0  0  0  0  0  0  0  0  0  0  0  0  0
+          0  0  0  0  0  0  0  0  0  0  0  0  0  0  0  0  0
+          0  0  0  0  0  0  0  0  0  0  0  0  0  0  0  0  0
++         2  2  2  2  2  2  2  2  2  2  2  2  2  2  2  2  2
++         2  2  2  2  2  2  2  2  2  2  2  2  2  2  2  0  0
++         0  0  0  0  0  0  0  0  0  0  0  0  0  0  0  0  0
++         0  0  0  0  0  0  0  0  0  0  0  0  0  0  0  0  0
++         0  0  0  0  0  0  0  0  0  0  0  0  0  0  0  0  0
%c cc cc ccc ccc cccc cccc cccc cccc ccccc ccccc ccccc ccccc
%c cc cc ccc ccc cccc cccc cccc cccc ccccc ccccc ccccc ccccc
%f  0.0000000  0.000000000  0.00000000000  0.000000000000000
%f  0.0000000  0.000000000  0.00000000000  0.000000000000000
%i    0    0    0    0      0      0      0      0         0
%i    0    0    0    0      0      0      0      0         0
/*      NGA, ST. LOUIS,MO.                                  
/*   EPHEMERIS COMPUTED FROM  1 DAYS OF DATA
/*   EPOCHA SMOOTHER  
/* CCCCCCCCCCCCCCCCCCCCCCCCCCCCCCCCCCCCCCCCCCCCCCCCCCCCCCCCC
*  2013  9 18 14 20  0.00000000                                                 
P  1  13444.891175 -22796.692788  -1428.675103     76.079887                    
V  1   3408.612499     65.465094  31756.253736      0.040671                    
P  2 -18620.691348   5962.775706 -17516.323839    451.903072                    
V  2   9932.191959 -20825.187338 -17925.819284      0.017800                    
P  3  16782.161393  -1955.155157  20000.039897    261.145541                    
V  3  14671.120705  22276.680098  -9684.482446      0.050189                    
P  4 -14164.707741  -7198.034724 -21589.678931      0.849516                    
V  4  14248.436944 -22694.615350  -1541.532803      0.006605                    
P  5 -26149.192105   2206.356174   4571.347384   -399.592800                    
V  5  -5696.114069  -3255.523985 -30666.914300      0.001201                    
P  6  18792.133884   5506.165351  18170.288392     59.993931                    
V  6  10476.879811  20399.775791 -16694.094650      0.189433                    
P  7   2176.166236 -21635.361615  15082.530873    260.000601                    
V  7  12235.304763 -14853.837658 -23474.409360      0.042194                    
P  8  -6278.753967 -14260.948770  21519.306006      8.523317                    
V  8  17628.976524 -20543.293391  -9112.942498      0.002572                    
P  9  -7022.888301 -14461.999334  20585.096576    269.352140                    
V  9  15388.398986 -22605.210113 -10488.534882      0.027105                    
P 10 -22170.478000  -9792.427844 -11643.612628    -94.926638                    
V 10  14328.336803  -1600.572063 -26220.510878     -0.014967                    
P 11  12709.713929 -21512.519027   8170.620522   -420.838851                    
V 11   1804.722719  12097.902943  27738.025677     -0.034717                    
P 12 -15346.111080  11141.251864 -18555.817078    157.073857                    
V 12 -23312.056163  -3041.046439  17696.540356      0.022001                    
P 13  -3823.464140 -24889.544027  -8344.907511     78.723490                    
V 13   5821.866215   8919.731764 -29870.023064     -0.037813                    
P 14  15324.005389  19611.430931  -9267.048892    215.479807                    
V 14   2774.150904  11887.286120  28918.992790     -0.008916                    
P 15  -8785.284234  14641.668678  20252.268365   -137.702550                    
V 15 -13770.440933 -22005.036447  10183.845446     -0.018661                    
P 16  26303.188432   -616.380975   4756.376756   -246.449714                    
V 16   5815.831574   2269.490502 -31331.616166      0.008069                    
P 17 -15303.696208 -20455.781135  -7481.483354    -22.555579                    
V 17  -2007.646129  -9809.669435  29795.115209     -0.038321                    
P 18   7753.159716  15699.796079  20473.856260    274.758601                    
V 18 -25133.029058    -77.617543   9435.015669      0.020089                    
P 19  11934.430472 -10025.132773  21336.979936   -405.075568                    
V 19  11003.175924  25126.215821   6037.448154     -0.028218                    
P 20   9959.609015 -14914.355958 -19746.357156    123.289612                    
V 20  24854.776389   1170.936208  11832.002961      0.026135                    
P 21   2138.866308  20410.977152  17171.009616   -319.299635                    
V 21 -13269.602675  16433.153107 -19028.214596     -0.019095                    
P 22  19473.855432  11562.884443  14192.665421    185.400500                    
V 22 -17830.822111   2015.133233  23005.977393      0.016247                    
P 23   3012.401634 -20217.142401 -16645.168565     47.062118                    
V 23  11651.790499  18190.956770 -20277.148237     -0.034686                    
P 24 -15523.477841  21359.302565   2604.158368    -13.972053                    
V 24   -708.129749  -4359.936714  31511.220504     -0.006774                    
P 25   -681.392995  14937.646321 -22010.610262    148.602138                    
V 25 -27739.564600  -1124.774183    191.098273      0.040976                    
P 26 -15640.812167  -1154.307507  20851.817018    196.128180                    
V 26  -9935.116018 -26045.577845  -8325.548099      0.184282                    
P 27  16973.259492   1747.399898  20345.938109    -38.003209                    
V 27  11111.742048  23370.422230 -11258.072235     -0.045059                    
P 28 -16094.290825 -13158.808263  17217.977266    293.589071                    
V 28  20616.771911   1065.943822  20637.623943      0.030801                    
P 29   2636.699225  24021.254606 -11024.123671    471.680529                    
V 29  -7898.966970 -11820.978639 -27508.060417      0.031367                    
P 31  14067.536837   5244.753518 -21764.235515    326.137607                    
V 31 -15512.698597  23259.093720  -4113.466702      0.008003                    
P 32  19561.473785  -8539.006121 -15347.739996   -547.805365                    
V 32  19430.264918   5180.131722  22254.977970      0.028863                    
EOF
